{
  "type": "FeatureCollection",
  "features": [
    {
      "type": "Feature",
      "properties": {
        "norad_id": 19071,
        "name": "OSCAR 32",
        "group": "nnss",
        "lat": -16.94532287108465,
        "lon": 16.516735720734417,
        "alt_km": 1297.1778575907247,
        "timestamp": "2025-12-09T07:41:33.476681+00:00",
        "meta_object_name": "OSCAR 32",
        "meta_object_id": "1988-033B",
        "meta_epoch": "2025-12-08T19:59:46.320864",
        "meta_mean_motion": 13.27953304,
        "meta_eccentricity": 0.01880369,
        "meta_inclination": 90.3221,
        "meta_ra_of_asc_node": 16.4033,
        "meta_arg_of_pericenter": 177.6421,
        "meta_mean_anomaly": 356.5363,
        "meta_ephemeris_type": 0,
        "meta_classification_type": "U",
        "meta_norad_cat_id": 19071,
        "meta_element_set_no": 999,
        "meta_rev_at_epoch": 82213,
        "meta_bstar": 0.00020453437,
        "meta_mean_motion_dot": 1.1e-06,
        "meta_mean_motion_ddot": 0,
        "tle_line1": "1 19071U 88033B   25342.83317501  .00000110  00000+0  20453-3 0  9992",
        "tle_line2": "2 19071  90.3221  16.4033 0188036 177.6421 356.5363 13.27953304822132"
      },
      "geometry": {
        "type": "Point",
        "coordinates": [
          16.516735720734417,
          -16.94532287108465
        ]
      }
    },
    {
      "type": "Feature",
      "properties": {
        "norad_id": 19223,
        "name": "NOVA 2",
        "group": "nnss",
        "lat": -61.43135591476784,
        "lon": -101.6995881846004,
        "alt_km": 1199.8169972241512,
        "timestamp": "2025-12-09T07:41:33.476692+00:00",
        "meta_object_name": "NOVA 2",
        "meta_object_id": "1988-052A",
        "meta_epoch": "2025-12-09T00:05:15.803232",
        "meta_mean_motion": 13.22935258,
        "meta_eccentricity": 0.00309009,
        "meta_inclination": 89.9871,
        "meta_ra_of_asc_node": 78.2771,
        "meta_arg_of_pericenter": 27.0422,
        "meta_mean_anomaly": 146.288,
        "meta_ephemeris_type": 0,
        "meta_classification_type": "U",
        "meta_norad_cat_id": 19223,
        "meta_element_set_no": 999,
        "meta_rev_at_epoch": 80898,
        "meta_bstar": 0.00022123431,
        "meta_mean_motion_dot": 1.02e-06,
        "meta_mean_motion_ddot": 0,
        "tle_line1": "1 19223U 88052A   25343.00365513  .00000102  00000+0  22123-3 0  9995",
        "tle_line2": "2 19223  89.9871  78.2771 0030900  27.0422 146.2880 13.22935258808984"
      },
      "geometry": {
        "type": "Point",
        "coordinates": [
          -101.6995881846004,
          -61.43135591476784
        ]
      }
    },
    {
      "type": "Feature",
      "properties": {
        "norad_id": 19419,
        "name": "OSCAR 25",
        "group": "nnss",
        "lat": 75.74395625531415,
        "lon": 20.095542256064338,
        "alt_km": 1162.9901487102989,
        "timestamp": "2025-12-09T07:41:33.476703+00:00",
        "meta_object_name": "OSCAR 25",
        "meta_object_id": "1988-074A",
        "meta_epoch": "2025-12-08T21:27:14.131584",
        "meta_mean_motion": 13.42622264,
        "meta_eccentricity": 0.00943083,
        "meta_inclination": 90.0349,
        "meta_ra_of_asc_node": 20.2315,
        "meta_arg_of_pericenter": 257.0069,
        "meta_mean_anomaly": 277.9723,
        "meta_ephemeris_type": 0,
        "meta_classification_type": "U",
        "meta_norad_cat_id": 19419,
        "meta_element_set_no": 999,
        "meta_rev_at_epoch": 82588,
        "meta_bstar": 0.00023301724,
        "meta_mean_motion_dot": 1.44e-06,
        "meta_mean_motion_ddot": 0,
        "tle_line1": "1 19419U 88074A   25342.89391356  .00000144  00000+0  23302-3 0  9992",
        "tle_line2": "2 19419  90.0349  20.2315 0094308 257.0069 277.9723 13.42622264825887"
      },
      "geometry": {
        "type": "Point",
        "coordinates": [
          20.095542256064338,
          75.74395625531415
        ]
      }
    },
    {
      "type": "Feature",
      "properties": {
        "norad_id": 19420,
        "name": "OSCAR 31",
        "group": "nnss",
        "lat": -39.077703292122514,
        "lon": 20.612261897000398,
        "alt_km": 1083.1835419136005,
        "timestamp": "2025-12-09T07:41:33.476717+00:00",
        "meta_object_name": "OSCAR 31",
        "meta_object_id": "1988-074B",
        "meta_epoch": "2025-12-08T20:14:32.045280",
        "meta_mean_motion": 13.42583793,
        "meta_eccentricity": 0.00925808,
        "meta_inclination": 90.0367,
        "meta_ra_of_asc_node": 20.5807,
        "meta_arg_of_pericenter": 251.2576,
        "meta_mean_anomaly": 284.1517,
        "meta_ephemeris_type": 0,
        "meta_classification_type": "U",
        "meta_norad_cat_id": 19420,
        "meta_element_set_no": 999,
        "meta_rev_at_epoch": 82598,
        "meta_bstar": 0.00022566756,
        "meta_mean_motion_dot": 1.39e-06,
        "meta_mean_motion_ddot": 0,
        "tle_line1": "1 19420U 88074B   25342.84342645  .00000139  00000+0  22567-3 0  9992",
        "tle_line2": "2 19420  90.0367  20.5807 0092580 251.2576 284.1517 13.42583793825982"
      },
      "geometry": {
        "type": "Point",
        "coordinates": [
          20.612261897000398,
          -39.077703292122514
        ]
      }
    }
  ]
}